{"type": "FeatureCollection", "features": [ {"type": "Feature", "properties": {"norad_id": 36539, "name": "COSMOS 2251 DEB", "group": "cosmos-2251-debris", "lat": 29.313500549404907, "lon": -126.28366084422308, "alt_km": 683.8712892123167, "timestamp": "2025-12-08T15:42:50.193488+00:00", "meta": {"OBJECT_NAME": "COSMOS 2251 DEB", "OBJECT_ID": "1993-036BCZ", "EPOCH": "2025-12-08T06:48:12.511296", "MEAN_MOTION": 14.59254167, "ECCENTRICITY": 0.00274568, "INCLINATION": 74.0241, "RA_OF_ASC_NODE": 63.6806, "ARG_OF_PERICENTER": 209.4778, "MEAN_ANOMALY": 150.484, "EPHEMERIS_TYPE": 0, "CLASSIFICATION_TYPE": "U", "NORAD_CAT_ID": 36539, "ELEMENT_SET_NO": 999, "REV_AT_EPOCH": 83882, "BSTAR": 0.0011437879, "MEAN_MOTION_DOT": 5.403e-05, "MEAN_MOTION_DDOT": 0}, "tle": {"line1": "1 36539U 93036BCZ 25342.28347814  .00005403  00000+0  11438-2 0  9990", "line2": "2 36539  74.0241  63.6806 0027456 209.4778 150.4840 14.59254167838821"}}, "geometry": {"type": "Point", "coordinates": [-126.28366084422308, 29.313500549404907]}}, {"type": "Feature", "properties": {"norad_id": 36540, "name": "COSMOS 2251 DEB", "group": "cosmos-2251-debris", "lat": 53.21882641159829, "lon": -14.231019866841274, "alt_km": 700.5246266454042, "timestamp": "2025-12-08T15:42:50.193498+00:00", "meta": {"OBJECT_NAME": "COSMOS 2251 DEB", "OBJECT_ID": "1993-036BDA", "EPOCH": "2025-12-08T00:19:53.855328", "MEAN_MOTION": 14.58414767, "ECCENTRICITY": 0.00152143, "INCLINATION": 74.0279, "RA_OF_ASC_NODE": 189.5155, "ARG_OF_PERICENTER": 259.8518, "MEAN_ANOMALY": 100.0931, "EPHEMERIS_TYPE": 0, "CLASSIFICATION_TYPE": "U", "NORAD_CAT_ID": 36540, "ELEMENT_SET_NO": 999, "REV_AT_EPOCH": 85941, "BSTAR": 0.0013238433, "MEAN_MOTION_DOT": 6.123e-05, "MEAN_MOTION_DDOT": 0}, "tle": {"line1": "1 36540U 93036BDA 25342.01381777  .00006123  00000+0  13238-2 0  9999", "line2": "2 36540  74.0279 189.5155 0015214 259.8518 100.0931 14.58414767859412"}}, "geometry": {"type": "Point", "coordinates": [-14.231019866841274, 53.21882641159829]}}, {"type": "Feature", "properties": {"norad_id": 36550, "name": "COSMOS 2251 DEB", "group": "cosmos-2251-debris", "lat": 58.9563621840774, "lon": -131.487175594066, "alt_km": 851.0527221496395, "timestamp": "2025-12-08T15:42:50.193508+00:00", "meta": {"OBJECT_NAME": "COSMOS 2251 DEB", "OBJECT_ID": "1993-036BDL", "EPOCH": "2025-12-05T23:29:18.021984", "MEAN_MOTION": 14.27168955, "ECCENTRICITY": 0.00788112, "INCLINATION": 74.0447, "RA_OF_ASC_NODE": 204.9723, "ARG_OF_PERICENTER": 257.0912, "MEAN_ANOMALY": 102.1425, "EPHEMERIS_TYPE": 0, "CLASSIFICATION_TYPE": "U", "NORAD_CAT_ID": 36550, "ELEMENT_SET_NO": 999, "REV_AT_EPOCH": 84499, "BSTAR": 0.0010210292, "MEAN_MOTION_DOT": 2.55e-05, "MEAN_MOTION_DDOT": 0}, "tle": {"line1": "1 36550U 93036BDL 25339.97868081  .00002550  00000+0  10210-2 0  9996", "line2": "2 36550  74.0447 204.9723 0078811 257.0912 102.1425 14.27168955844992"}}, "geometry": {"type": "Point", "coordinates": [-131.487175594066, 58.9563621840774]}}, {"type": "Feature", "properties": {"norad_id": 36551, "name": "COSMOS 2251 DEB", "group": "cosmos-2251-debris", "lat": 73.42181667518157, "lon": 126.96592307429378, "alt_km": 570.23693520713, "timestamp": "2025-12-08T15:42:50.193518+00:00", "meta": {"OBJECT_NAME": "COSMOS 2251 DEB", "OBJECT_ID": "1993-036BDM", "EPOCH": "2025-12-07T02:32:25.712160", "MEAN_MOTION": 15.02297891, "ECCENTRICITY": 0.00507013, "INCLINATION": 73.8888, "RA_OF_ASC_NODE": 26.3042, "ARG_OF_PERICENTER": 336.2783, "MEAN_ANOMALY": 23.6067, "EPHEMERIS_TYPE": 0, "CLASSIFICATION_TYPE": "U", "NORAD_CAT_ID": 36551, "ELEMENT_SET_NO": 999, "REV_AT_EPOCH": 66847, "BSTAR": 0.0018868988, "MEAN_MOTION_DOT": 0.00025681, "MEAN_MOTION_DDOT": 0}, "tle": {"line1": "1 36551U 93036BDM 25341.10585315  .00025681  00000+0  18869-2 0  9999", "line2": "2 36551  73.8888  26.3042 0050701 336.2783  23.6067 15.02297891668475"}}, "geometry": {"type": "Point", "coordinates": [126.96592307429378, 73.42181667518157]}}, {"type": "Feature", "properties": {"norad_id": 36557, "name": "COSMOS 2251 DEB", "group": "cosmos-2251-debris", "lat": 67.69699017838049, "lon": 178.7633799161061, "alt_km": 641.4670532319615, "timestamp": "2025-12-08T15:42:50.193529+00:00", "meta": {"OBJECT_NAME": "COSMOS 2251 DEB", "OBJECT_ID": "1993-036BDT", "EPOCH": "2025-12-08T04:00:23.408640", "MEAN_MOTION": 14.77896445, "ECCENTRICITY": 0.00208756, "INCLINATION": 73.9796, "RA_OF_ASC_NODE": 135.2598, "ARG_OF_PERICENTER": 286.5091, "MEAN_ANOMALY": 73.3791, "EPHEMERIS_TYPE": 0, "CLASSIFICATION_TYPE": "U", "NORAD_CAT_ID": 36557, "ELEMENT_SET_NO": 999, "REV_AT_EPOCH": 33829, "BSTAR": 0.0039354572, "MEAN_MOTION_DOT": 0.00028521, "MEAN_MOTION_DDOT": 0}, "tle": {"line1": "1 36557U 93036BDT 25342.16693760  .00028521  00000+0  39355-2 0  9995", "line2": "2 36557  73.9796 135.2598 0020875 286.5091  73.3791 14.77896445338295"}}, "geometry": {"type": "Point", "coordinates": [178.7633799161061, 67.69699017838049]}}, {"type": "Feature", "properties": {"norad_id": 36558, "name": "COSMOS 2251 DEB", "group": "cosmos-2251-debris", "lat": -12.270028444354969, "lon": 158.70838960547118, "alt_km": 713.5141021154204, "timestamp": "2025-12-08T15:42:50.193539+00:00", "meta": {"OBJECT_NAME": "COSMOS 2251 DEB", "OBJECT_ID": "1993-036BDU", "EPOCH": "2025-12-08T05:52:25.124736", "MEAN_MOTION": 14.55307501, "ECCENTRICITY": 0.00130044, "INCLINATION": 74.0414, "RA_OF_ASC_NODE": 163.0524, "ARG_OF_PERICENTER": 251.4355, "MEAN_ANOMALY": 108.5396, "EPHEMERIS_TYPE": 0, "CLASSIFICATION_TYPE": "U", "NORAD_CAT_ID": 36558, "ELEMENT_SET_NO": 999, "REV_AT_EPOCH": 85203, "BSTAR": 0.0012540179, "MEAN_MOTION_DOT": 5.418e-05, "MEAN_MOTION_DDOT": 0}, "tle": {"line1": "1 36558U 93036BDU 25342.24473524  .00005418  00000+0  12540-2 0  9996", "line2": "2 36558  74.0414 163.0524 0013004 251.4355 108.5396 14.55307501852034"}}, "geometry": {"type": "Point", "coordinates": [158.70838960547118, -12.270028444354969]}}, {"type": "Feature", "properties": {"norad_id": 36559, "name": "COSMOS 2251 DEB", "group": "cosmos-2251-debris", "lat": -17.116178659123317, "lon": 11.766056371021897, "alt_km": 841.7843336400028, "timestamp": "2025-12-08T15:42:50.193550+00:00", "meta": {"OBJECT_NAME": "COSMOS 2251 DEB", "OBJECT_ID": "1993-036BDV", "EPOCH": "2025-12-08T03:45:01.813536", "MEAN_MOTION": 13.95135838, "ECCENTRICITY": 0.02600272, "INCLINATION": 74.1301, "RA_OF_ASC_NODE": 17.6431, "ARG_OF_PERICENTER": 51.8718, "MEAN_ANOMALY": 310.5544, "EPHEMERIS_TYPE": 0, "CLASSIFICATION_TYPE": "U", "NORAD_CAT_ID": 36559, "ELEMENT_SET_NO": 999, "REV_AT_EPOCH": 81030, "BSTAR": 0.0033662346, "MEAN_MOTION_DOT": 6.006e-05, "MEAN_MOTION_DDOT": 0}, "tle": {"line1": "1 36559U 93036BDV 25342.15627099  .00006006  00000+0  33662-2 0  9997", "line2": "2 36559  74.1301  17.6431 0260027  51.8718 310.5544 13.95135838810305"}}, "geometry": {"type": "Point", "coordinates": [11.766056371021897, -17.116178659123317]}}, {"type": "Feature", "properties": {"norad_id": 36614, "name": "COSMOS 2251 DEB", "group": "cosmos-2251-debris", "lat": -62.79803331791758, "lon": 148.50555954696992, "alt_km": 690.5128209678323, "timestamp": "2025-12-08T15:42:50.193560+00:00", "meta": {"OBJECT_NAME": "COSMOS 2251 DEB", "OBJECT_ID": "1993-036BEC", "EPOCH": "2025-12-07T20:17:29.491872", "MEAN_MOTION": 14.60174339, "ECCENTRICITY": 0.00163717, "INCLINATION": 74.0208, "RA_OF_ASC_NODE": 183.9343, "ARG_OF_PERICENTER": 254.1253, "MEAN_ANOMALY": 105.8109, "EPHEMERIS_TYPE": 0, "CLASSIFICATION_TYPE": "U", "NORAD_CAT_ID": 36614, "ELEMENT_SET_NO": 999, "REV_AT_EPOCH": 65541, "BSTAR": 0.0021436205, "MEAN_MOTION_DOT": 0.00010332, "MEAN_MOTION_DDOT": 0}, "tle": {"line1": "1 36614U 93036BEC 25341.84548023  .00010332  00000+0  21436-2 0  9996", "line2": "2 36614  74.0208 183.9343 0016371 254.1253 105.8109 14.60174339655417"}}, "geometry": {"type": "Point", "coordinates": [148.50555954696992, -62.79803331791758]}}, {"type": "Feature", "properties": {"norad_id": 36622, "name": "COSMOS 2251 DEB", "group": "cosmos-2251-debris", "lat": 54.20971290426283, "lon": -49.94611027791562, "alt_km": 683.0764048423871, "timestamp": "2025-12-08T15:42:50.193571+00:00", "meta": {"OBJECT_NAME": "COSMOS 2251 DEB", "OBJECT_ID": "1993-036BEL", "EPOCH": "2025-12-07T18:00:44.362080", "MEAN_MOTION": 14.76130008, "ECCENTRICITY": 0.00687085, "INCLINATION": 74.0127, "RA_OF_ASC_NODE": 155.2579, "ARG_OF_PERICENTER": 291.6324, "MEAN_ANOMALY": 67.7541, "EPHEMERIS_TYPE": 0, "CLASSIFICATION_TYPE": "U", "NORAD_CAT_ID": 36622, "ELEMENT_SET_NO": 999, "REV_AT_EPOCH": 66676, "BSTAR": 0.0010654006, "MEAN_MOTION_DOT": 7.621e-05, "MEAN_MOTION_DDOT": 0}, "tle": {"line1": "1 36622U 93036BEL 25341.75051345  .00007621  00000+0  10654-2 0  9998", "line2": "2 36622  74.0127 155.2579 0068708 291.6324  67.7541 14.76130008666763"}}, "geometry": {"type": "Point", "coordinates": [-49.94611027791562, 54.20971290426283]}}, {"type": "Feature", "properties": {"norad_id": 36632, "name": "COSMOS 2251 DEB", "group": "cosmos-2251-debris", "lat": 46.93239970069896, "lon": -42.15460120141579, "alt_km": 721.0247697701643, "timestamp": "2025-12-08T15:42:50.193581+00:00", "meta": {"OBJECT_NAME": "COSMOS 2251 DEB", "OBJECT_ID": "1993-036BEW", "EPOCH": "2025-12-08T03:50:26.997216", "MEAN_MOTION": 14.43133085, "ECCENTRICITY": 0.00317609, "INCLINATION": 74.0032, "RA_OF_ASC_NODE": 300.8928, "ARG_OF_PERICENTER": 49.809, "MEAN_ANOMALY": 310.5839, "EPHEMERIS_TYPE": 0, "CLASSIFICATION_TYPE": "U", "NORAD_CAT_ID": 36632, "ELEMENT_SET_NO": 999, "REV_AT_EPOCH": 65149, "BSTAR": 0.0011897932, "MEAN_MOTION_DOT": 3.995e-05, "MEAN_MOTION_DDOT": 0}, "tle": {"line1": "1 36632U 93036BEW 25342.16003469  .00003995  00000+0  11898-2 0  9990", "line2": "2 36632  74.0032 300.8928 0031760  49.8090 310.5839 14.43133085651491"}}, "geometry": {"type": "Point", "coordinates": [-42.15460120141579, 46.93239970069896]}}]}